CTC2_L_00359016-03
1 21547U 24645FK  26037.47795139  .00000000  00000+0  00000-0 0  9992
2 21547  80.0000 180.0000 0000000   0.0000   0.0000 13.29142284    15
CTC2_L_00359016-04
1 21548U 25892VV  26037.47795139  .00000000  00000+0  00000-0 0  9998
2 21548  80.0000 180.0000 0000000   0.0000  90.0000 13.29142284    15
CTC2_L_00359017-01
1 21549U 26904SG  26037.47795139  .00000000  00000+0  00000-0 0  9994
2 21549  80.0000 192.0000 0000000   0.0000 192.0000 13.29142284    12
CTC2_L_00359017-02
1 21550U 26902ZG  26037.47795139  .00000000  00000+0  00000-0 0  9994
2 21550  80.0000 192.0000 0000000   0.0000 282.0000 13.29142284    14
CTC2_L_00359017-03
1 21551U 26088GS  26037.47795139  .00000000  00000+0  00000-0 0  9990
2 21551  80.0000 192.0000 0000000   0.0000  12.0000 13.29142284    16
CTC2_L_00359017-04
1 21552U 24871NV  26037.47795139  .00000000  00000+0  00000-0 0  9999
2 21552  80.0000 192.0000 0000000   0.0000 102.0000 13.29142284    17
CTC2_L_00359018-01
1 21553U 24185YX  26037.47795139  .00000000  00000+0  00000-0 0  9998
2 21553  80.0000 204.0000 0000000   0.0000 204.0000 13.29142284    15
CTC2_L_00359018-02
1 21554U 24769NK  26037.47795139  .00000000  00000+0  00000-0 0  9997
2 21554  80.0000 204.0000 0000000   0.0000 294.0000 13.29142284    15
CTC2_L_00359018-03
1 21555U 25027MU  26037.47795139  .00000000  00000+0  00000-0 0  9996
2 21555  80.0000 204.0000 0000000   0.0000  24.0000 13.29142284    17
CTC2_L_00359018-04
1 21556U 23749AN  26037.47795139  .00000000  00000+0  00000-0 0  9996
2 21556  80.0000 204.0000 0000000   0.0000 114.0000 13.29142284    18
CTC2_L_00359019-01
1 21557U 22805AG  26037.47795139  .00000000  00000+0  00000-0 0  9999
2 21557  80.0000 216.0000 0000000   0.0000 216.0000 13.29142284    15
CTC2_L_00359019-02
1 21558U 24433KX  26037.47795139  .00000000  00000+0  00000-0 0  9999
2 21558  80.0000 216.0000 0000000   0.0000 306.0000 13.29142284    16
CTC2_L_00359019-03
1 21559U 25818YE  26037.47795139  .00000000  00000+0  00000-0 0  9998
2 21559  80.0000 216.0000 0000000   0.0000  36.0000 13.29142284    17
CTC2_L_00359019-04
1 21560U 22165NZ  26037.47795139  .00000000  00000+0  00000-0 0  9992
2 21560  80.0000 216.0000 0000000   0.0000 126.0000 13.29142284    19
CTC2_L_00359020-01
1 21561U 25353AB  26037.47795139  .00000000  00000+0  00000-0 0  9995
2 21561  80.0000 228.0000 0000000   0.0000 228.0000 13.29142284    16
CTC2_L_00359020-02
1 21562U 25518JI  26037.47795139  .00000000  00000+0  00000-0 0  9999
2 21562  80.0000 228.0000 0000000   0.0000 318.0000 13.29142284    17
CTC2_L_00359020-03
1 21563U 25561NV  26037.47795139  .00000000  00000+0  00000-0 0  9998
2 21563  80.0000 228.0000 0000000   0.0000  48.0000 13.29142284    18
CTC2_L_00359020-04
1 21564U 22060DU  26037.47795139  .00000000  00000+0  00000-0 0  9990
2 21564  80.0000 228.0000 0000000   0.0000 138.0000 13.29142284    19
CTC2_L_00359021-01
1 21565U 22969QA  26037.47795139  .00000000  00000+0  00000-0 0  9999
2 21565  80.0000 240.0000 0000000   0.0000 240.0000 13.29142284    18
CTC2_L_00359021-02
1 21566U 24453MF  26037.47795139  .00000000  00000+0  00000-0 0  9990
2 21566  80.0000 240.0000 0000000   0.0000 330.0000 13.29142284    19
CTC2_L_00359021-03
1 21567U 24953QG  26037.47795139  .00000000  00000+0  00000-0 0  9996
2 21567  80.0000 240.0000 0000000   0.0000  60.0000 13.29142284    10
CTC2_L_00359021-04
1 21568U 26112AC  26037.47795139  .00000000  00000+0  00000-0 0  9996
2 21568  80.0000 240.0000 0000000   0.0000 150.0000 13.29142284    11
CTC2_L_00359022-01
1 21569U 25564MP  26037.47795139  .00000000  00000+0  00000-0 0  9997
2 21569  80.0000 252.0000 0000000   0.0000 252.0000 13.29142284    18
CTC2_L_00359022-02
1 21570U 25622EF  26037.47795139  .00000000  00000+0  00000-0 0  9994
2 21570  80.0000 252.0000 0000000   0.0000 342.0000 13.29142284    10
CTC2_L_00359022-03
1 21571U 23509TG  26037.47795139  .00000000  00000+0  00000-0 0  9997
2 21571  80.0000 252.0000 0000000   0.0000  72.0000 13.29142284    11
CTC2_L_00359022-04
1 21572U 26478LU  26037.47795139  .00000000  00000+0  00000-0 0  9996
2 21572  80.0000 252.0000 0000000   0.0000 162.0000 13.29142284    12
CTC2_L_00359023-01
1 21573U 26065AR  26037.47795139  .00000000  00000+0  00000-0 0  9999
2 21573  80.0000 264.0000 0000000   0.0000 264.0000 13.29142284    19
CTC2_L_00359023-02
1 21574U 24091UM  26037.47795139  .00000000  00000+0  00000-0 0  9997
2 21574  80.0000 264.0000 0000000   0.0000 354.0000 13.29142284    10
CTC2_L_00359023-03
1 21575U 26272KM  26037.47795139  .00000000  00000+0  00000-0 0  9991
2 21575  80.0000 264.0000 0000000   0.0000  84.0000 13.29142284    11
CTC2_L_00359023-04
1 21576U 22272ZD  26037.47795139  .00000000  00000+0  00000-0 0  9998
2 21576  80.0000 264.0000 0000000   0.0000 174.0000 13.29142284    12
CTC2_L_00359024-01
1 21577U 22670EO  26037.47795139  .00000000  00000+0  00000-0 0  9991
2 21577  80.0000 276.0000 0000000   0.0000 276.0000 13.29142284    19
CTC2_L_00359024-02
1 21578U 24349FC  26037.47795139  .00000000  00000+0  00000-0 0  9997
2 21578  80.0000 276.0000 0000000   0.0000   6.0000 13.29142284    11
CTC2_L_00359024-03
1 21579U 26520AM  26037.47795139  .00000000  00000+0  00000-0 0  9991
2 21579  80.0000 276.0000 0000000   0.0000  96.0000 13.29142284    11
CTC2_L_00359024-04
1 21580U 22577HE  26037.47795139  .00000000  00000+0  00000-0 0  9991
2 21580  80.0000 276.0000 0000000   0.0000 186.0000 13.29142284    13
CTC2_L_00359025-01
1 21581U 24565PD  26037.47795139  .00000000  00000+0  00000-0 0  9991
2 21581  80.0000 288.0000 0000000   0.0000 288.0000 13.29142284    10
CTC2_L_00359025-02
1 21582U 26998SA  26037.47795139  .00000000  00000+0  00000-0 0  9994
2 21582  80.0000 288.0000 0000000   0.0000  18.0000 13.29142284    12
CTC2_L_00359025-03
1 21583U 24554UN  26037.47795139  .00000000  00000+0  00000-0 0  9991
2 21583  80.0000 288.0000 0000000   0.0000 108.0000 13.29142284    13
CTC2_L_00359025-04
1 21584U 23694VH  26037.47795139  .00000000  00000+0  00000-0 0  9996
2 21584  80.0000 288.0000 0000000   0.0000 198.0000 13.29142284    13
CTC2_L_00359026-01
1 21585U 22370CV  26037.47795139  .00000000  00000+0  00000-0 0  9997
2 21585  80.0000 300.0000 0000000   0.0000 300.0000 13.29142284    14
CTC2_L_00359026-02
1 21586U 26035ZI  26037.47795139  .00000000  00000+0  00000-0 0  9990
2 21586  80.0000 300.0000 0000000   0.0000  30.0000 13.29142284    15
CTC2_L_00359026-03
1 21587U 25015HK  26037.47795139  .00000000  00000+0  00000-0 0  9998
2 21587  80.0000 300.0000 0000000   0.0000 120.0000 13.29142284    16
CTC2_L_00359026-04
1 21588U 26976BU  26037.47795139  .00000000  00000+0  00000-0 0  9996
2 21588  80.0000 300.0000 0000000   0.0000 210.0000 13.29142284    17
CTC2_L_00359027-01
1 21589U 26724NZ  26037.47795139  .00000000  00000+0  00000-0 0  9998
2 21589  80.0000 312.0000 0000000   0.0000 312.0000 13.29142284    14
CTC2_L_00359027-02
1 21590U 25139SI  26037.47795139  .00000000  00000+0  00000-0 0  9999
2 21590  80.0000 312.0000 0000000   0.0000  42.0000 13.29142284    16
CTC2_L_00359027-03
1 21591U 25996NR  26037.47795139  .00000000  00000+0  00000-0 0  9991
2 21591  80.0000 312.0000 0000000   0.0000 132.0000 13.29142284    17
CTC2_L_00359027-04
1 21592U 26925MQ  26037.47795139  .00000000  00000+0  00000-0 0  9995
2 21592  80.0000 312.0000 0000000   0.0000 222.0000 13.29142284    18
CTC2_L_00359028-01
1 21593U 24196ZI  26037.47795139  .00000000  00000+0  00000-0 0  9994
2 21593  80.0000 324.0000 0000000   0.0000 324.0000 13.29142284    15
CTC2_L_00359028-02
1 21594U 26530WN  26037.47795139  .00000000  00000+0  00000-0 0  9999
2 21594  80.0000 324.0000 0000000   0.0000  54.0000 13.29142284    16
CTC2_L_00359028-03
1 21595U 26586WM  26037.47795139  .00000000  00000+0  00000-0 0  9991
2 21595  80.0000 324.0000 0000000   0.0000 144.0000 13.29142284    17
CTC2_L_00359028-04
1 21596U 22765YJ  26037.47795139  .00000000  00000+0  00000-0 0  9997
2 21596  80.0000 324.0000 0000000   0.0000 234.0000 13.29142284    18
CTC2_L_00359029-01
1 21597U 25494AN  26037.47795139  .00000000  00000+0  00000-0 0  9990
2 21597  80.0000 336.0000 0000000   0.0000 336.0000 13.29142284    15
CTC2_L_00359029-02
1 21598U 23758WG  26037.47795139  .00000000  00000+0  00000-0 0  9992
2 21598  80.0000 336.0000 0000000   0.0000  66.0000 13.29142284    16
CTC2_L_00359029-03
1 21599U 22825YC  26037.47795139  .00000000  00000+0  00000-0 0  9997
2 21599  80.0000 336.0000 0000000   0.0000 156.0000 13.29142284    17
CTC2_L_00359029-04
1 21600U 24702PR  26037.47795139  .00000000  00000+0  00000-0 0  9996
2 21600  80.0000 336.0000 0000000   0.0000 246.0000 13.29142284    10
CTC2_L_00359030-01
1 21601U 25171AR  26037.47795139  .00000000  00000+0  00000-0 0  9998
2 21601  80.0000 348.0000 0000000   0.0000 348.0000 13.29142284    17
CTC2_L_00359030-02
1 21602U 25043QX  26037.47795139  .00000000  00000+0  00000-0 0  9997
2 21602  80.0000 348.0000 0000000   0.0000  78.0000 13.29142284    18
CTC2_L_00359030-03
1 21603U 24737AE  26037.47795139  .00000000  00000+0  00000-0 0  9997
2 21603  80.0000 348.0000 0000000   0.0000 168.0000 13.29142284    19
CTC2_L_00359030-04
1 21604U 22786VR  26037.47795139  .00000000  00000+0  00000-0 0  9990
2 21604  80.0000 348.0000 0000000   0.0000 258.0000 13.29142284    10
